
 PEER Ground Motion Database, Time Series Search Report -- NGA-West2 -- 2024-01-25


 -- Summary of PEER Ground Motion Database Search Criteria --
Magnitude Min:, -1.0e-06
Magnitude Max:, 99999
Rrup Min (km):, -1.0e-06
Rrup Max (km):, 99999
Rjb Min (km):, -1.0e-06
Rjb Max (km):, 99999
Vs30 Min (m/sec):, -1.0e-06
Vs30 Max (m/sec):, 99999
D9-95 Min (sec):, -1.0e-06
D9-95 Max (sec):, 99999
Scale Factor Min:, -1.0e-06
Scale Factor Max:, 99999
Period Array:, 
Weight Array:, 
Record Sequence Number:, 585
Earthquake Name:, 
Station Name:, 
User-Defined Maximum Number of Records:, 
Pulse:, 1
Damping Ratio:, 0.05
Scaling Method:, No Scaling
Suite Average:, Arithmetic
Single-Period-Scaling Period (sec):, 
Component:, RotD50
Fault Type:, All Types


 -- Summary of Metadata of Selected Records --
Result ID, Spectral Ordinate, Record Sequence Number, Mean Squared Error, Scale Factor, Tp-Pulse Period (sec), 5-75% Duration (sec), 5-95% Duration (sec), Arias Intensity (m/sec), Earthquake Name, Year, Station Name, Magnitude, Mechanism, Rjb (km), Rrup (km), Vs30 (m/sec), Lowest Useable Frequency (Hz), Initial-search Scale Factor, Horizontal-1 Acc. Filename, Horizontal-2 Acc. Filename, Vertical Acc. Filename
1, RotD50, 585, -, 1.0, -, 1.5, 4.2, 3.6, "Baja California", 1987, "Cerro Prieto", 5.5, strike slip, 3.43, 4.46, 471.53, 0.1625, 1.0, RSN585_BAJA_CPE161.AT2, RSN585_BAJA_CPE251.AT2 , RSN585_BAJA_CPE-UP.AT2  

 These records were obtained from the NGA-West2 On-Line Ground-Motion Database Tool
 These records are UNSCALED, AS RECORDED
 Filename Extension: 
   ,AT2 = Acceleration
   ,VT2 = Velocity
   ,DT2 = Displacement
 The users of the NGA-West2 databases, flatfiles, models and reports are requested to acknowledge the Pacific Earthquake Engineering Research Center (PEER) in their work and publications.

 -- Scaled Spectra used in Search & Scaling --
Period (sec),Arithmetic Mean pSa (g),Arithmetic Mean + Sigma pSa (g),Arithmetic Mean - Sigma pSa (g),RSN-585 RotD50 pSa (g)
0.01,1.162819,1.162819,1.162819,1.162819
0.02,1.39964,1.39964,1.39964,1.39964
0.022,1.478271,1.478271,1.478271,1.478271
0.025,1.512945,1.512945,1.512945,1.512945
0.029,1.578101,1.578101,1.578101,1.578101
0.03,1.616412,1.616412,1.616412,1.616412
0.032,1.665342,1.665342,1.665342,1.665342
0.035,1.788666,1.788666,1.788666,1.788666
0.036,1.806116,1.806116,1.806116,1.806116
0.04,1.8755,1.8755,1.8755,1.8755
0.042,1.908558,1.908558,1.908558,1.908558
0.044,1.938329,1.938329,1.938329,1.938329
0.045,1.936413,1.936413,1.936413,1.936413
0.046,1.909138,1.909138,1.909138,1.909138
0.048,1.801688,1.801688,1.801688,1.801688
0.05,1.82154,1.82154,1.82154,1.82154
0.055,1.848681,1.848681,1.848681,1.848681
0.06,2.00883,2.00883,2.00883,2.00883
0.065,2.137409,2.137409,2.137409,2.137409
0.067,2.190723,2.190723,2.190723,2.190723
0.07,2.270551,2.270551,2.270551,2.270551
0.075,2.308039,2.308039,2.308039,2.308039
0.08,2.171272,2.171272,2.171272,2.171272
0.085,2.2631,2.2631,2.2631,2.2631
0.09,2.366784,2.366784,2.366784,2.366784
0.095,2.386336,2.386336,2.386336,2.386336
0.1,2.275266,2.275266,2.275266,2.275266
0.11,2.459659,2.459659,2.459659,2.459659
0.12,2.847516,2.847516,2.847516,2.847516
0.13,2.607519,2.607519,2.607519,2.607519
0.133,2.543429,2.543429,2.543429,2.543429
0.14,2.465838,2.465838,2.465838,2.465838
0.15,2.182699,2.182699,2.182699,2.182699
0.16,1.872145,1.872145,1.872145,1.872145
0.17,1.853019,1.853019,1.853019,1.853019
0.18,1.696339,1.696339,1.696339,1.696339
0.19,1.508803,1.508803,1.508803,1.508803
0.2,1.517705,1.517705,1.517705,1.517705
0.22,1.655139,1.655139,1.655139,1.655139
0.24,1.395205,1.395205,1.395205,1.395205
0.25,1.243671,1.243671,1.243671,1.243671
0.26,1.218924,1.218924,1.218924,1.218924
0.28,1.375764,1.375764,1.375764,1.375764
0.29,1.318912,1.318912,1.318912,1.318912
0.3,1.335133,1.335133,1.335133,1.335133
0.32,1.336574,1.336574,1.336574,1.336574
0.34,1.297775,1.297775,1.297775,1.297775
0.35,1.321883,1.321883,1.321883,1.321883
0.36,1.31789,1.31789,1.31789,1.31789
0.38,1.271491,1.271491,1.271491,1.271491
0.4,1.301219,1.301219,1.301219,1.301219
0.42,1.25054,1.25054,1.25054,1.25054
0.44,1.152941,1.152941,1.152941,1.152941
0.45,1.090202,1.090202,1.090202,1.090202
0.46,1.025837,1.025837,1.025837,1.025837
0.48,1.022321,1.022321,1.022321,1.022321
0.5,1.044327,1.044327,1.044327,1.044327
0.55,0.9328257,0.9328257,0.9328257,0.9328257
0.6,1.048718,1.048718,1.048718,1.048718
0.65,1.171163,1.171163,1.171163,1.171163
0.667,1.147705,1.147705,1.147705,1.147705
0.7,1.156897,1.156897,1.156897,1.156897
0.75,1.054583,1.054583,1.054583,1.054583
0.8,0.8724035,0.8724035,0.8724035,0.8724035
0.85,0.6820055,0.6820055,0.6820055,0.6820055
0.9,0.5840594,0.5840594,0.5840594,0.5840594
0.95,0.5331177,0.5331177,0.5331177,0.5331177
1.0,0.497785,0.497785,0.497785,0.497785
1.1,0.4847638,0.4847638,0.4847638,0.4847638
1.2,0.4511096,0.4511096,0.4511096,0.4511096
1.3,0.4834513,0.4834513,0.4834513,0.4834513
1.4,0.4465499,0.4465499,0.4465499,0.4465499
1.5,0.3936026,0.3936026,0.3936026,0.3936026
1.6,0.3378947,0.3378947,0.3378947,0.3378947
1.7,0.2943277,0.2943277,0.2943277,0.2943277
1.8,0.2632115,0.2632115,0.2632115,0.2632115
1.9,0.230553,0.230553,0.230553,0.230553
2.0,0.1978798,0.1978798,0.1978798,0.1978798
2.2,0.1413351,0.1413351,0.1413351,0.1413351
2.4,0.1118931,0.1118931,0.1118931,0.1118931
2.5,0.1024212,0.1024212,0.1024212,0.1024212
2.6,0.09708293,0.09708293,0.09708293,0.09708293
2.8,0.08611604,0.08611604,0.08611604,0.08611604
3.0,0.07544881,0.07544881,0.07544881,0.07544881
3.2,0.06624859,0.06624859,0.06624859,0.06624859
3.4,0.06010431,0.06010431,0.06010431,0.06010431
3.5,0.05664918,0.05664918,0.05664918,0.05664918
3.6,0.05312657,0.05312657,0.05312657,0.05312657
3.8,0.04666347,0.04666347,0.04666347,0.04666347
4.0,0.04243613,0.04243613,0.04243613,0.04243613
4.2,0.0374748,0.0374748,0.0374748,0.0374748
4.4,0.03309077,0.03309077,0.03309077,0.03309077
4.6,0.03080196,0.03080196,0.03080196,0.03080196
4.8,0.02793627,0.02793627,0.02793627,0.02793627
5.0,0.02503536,0.02503536,0.02503536,0.02503536
5.5,0.01945016,0.01945016,0.01945016,0.01945016
6.0,0.0160955,0.0160955,0.0160955,0.0160955
6.5,0.01249365,0.01249365,0.01249365,0.01249365
7.0,0.01054487,0.01054487,0.01054487,0.01054487
7.5,0.00924425,0.00924425,0.00924425,0.00924425
8.0,0.00815582,0.00815582,0.00815582,0.00815582
8.5,0.007257,0.007257,0.007257,0.007257
9.0,0.00648846,0.00648846,0.00648846,0.00648846
9.5,0.00583537,0.00583537,0.00583537,0.00583537
10.0,0.00528355,0.00528355,0.00528355,0.00528355
11.0,0.00437925,0.00437925,0.00437925,0.00437925
12.0,0.00368778,0.00368778,0.00368778,0.00368778
13.0,0.00314948,0.00314948,0.00314948,0.00314948
14.0,0.00272147,0.00272147,0.00272147,0.00272147
15.0,0.00237349,0.00237349,0.00237349,0.00237349
20.0,0.00134015,0.00134015,0.00134015,0.00134015

 -- Unscaled Horizontal & Vertical Spectra, as recorded --
Period (sec),RSN-585 Horizontal-1 pSa (g),RSN-585 Horizontal-2 pSa (g),RSN-585 Vertical pSa (g)
0.01,1.284207,0.9179627,0.688
0.02,1.820792,1.013222,0.74
0.022,1.933693,1.0836,0.717
0.025,1.862541,1.083984,0.739
0.029,1.977648,1.128378,0.777
0.03,2.009484,1.193817,0.763
0.032,2.083218,1.339774,0.785
0.035,2.134843,1.563057,0.825
0.036,2.100022,1.624844,0.88
0.04,2.188291,1.782723,0.989
0.042,2.146686,1.828729,0.995
0.044,2.209713,1.851617,1.0
0.045,2.201584,1.837727,1.07
0.046,2.125418,1.820906,1.13
0.048,1.884148,1.760667,1.16
0.05,1.957769,1.739571,1.28
0.055,2.134283,1.525044,1.39
0.06,2.172704,1.719451,1.4
0.065,2.442843,1.74375,1.68
0.067,2.494215,1.763262,1.74
0.07,2.718758,1.736335,1.7
0.075,2.887495,1.613035,1.64
0.08,2.836183,1.556917,1.76
0.085,3.010536,1.717781,1.84
0.09,3.167022,1.863559,1.53
0.095,3.177596,1.579857,1.33
0.1,2.984298,1.747074,1.61
0.11,2.536191,1.942943,1.7
0.12,2.91298,2.171142,1.83
0.13,2.758254,2.181391,2.05
0.133,2.567168,2.213034,2.09
0.14,2.784625,1.806218,2.03
0.15,2.673469,1.338895,1.79
0.16,1.891436,1.543994,1.6
0.17,1.774905,1.606534,1.45
0.18,1.807664,1.18813,1.26
0.19,1.569717,1.036924,1.35
0.2,1.596787,1.154344,1.37
0.22,1.825927,1.271312,1.27
0.24,1.476283,1.512119,0.96
0.25,1.09479,1.559856,0.875
0.26,1.123459,1.569159,0.835
0.28,1.085012,1.56296,0.992
0.29,1.047869,1.58946,1.06
0.3,1.010978,1.575802,1.13
0.32,1.095555,1.508707,1.06
0.34,1.249173,1.418983,0.934
0.35,1.297116,1.389985,0.87
0.36,1.293147,1.35534,0.816
0.38,1.262793,1.28713,0.731
0.4,1.036135,1.499584,0.654
0.42,0.798289,1.618868,0.572
0.44,0.6866626,1.5435,0.482
0.45,0.6257605,1.450114,0.436
0.46,0.5630516,1.334529,0.39
0.48,0.5842036,1.237358,0.306
0.5,0.6617318,1.134313,0.274
0.55,0.7783148,1.031688,0.236
0.6,0.8301797,1.17175,0.244
0.65,0.7999284,1.371694,0.259
0.667,0.8284929,1.395163,0.275
0.7,0.8657258,1.408049,0.278
0.75,0.8507769,1.245012,0.264
0.8,0.7836562,0.9405441,0.249
0.85,0.6348334,0.7228927,0.233
0.9,0.4814755,0.6749766,0.212
0.95,0.4451904,0.6250759,0.193
1.0,0.4424704,0.5752314,0.18
1.1,0.4235718,0.4808176,0.153
1.2,0.3935398,0.6118586,0.128
1.3,0.3599122,0.6071727,0.107
1.4,0.3676878,0.5093162,0.0907
1.5,0.3718416,0.4148092,0.0801
1.6,0.3528436,0.3322766,0.068
1.7,0.2968553,0.2890983,0.0522
1.8,0.2716266,0.2465483,0.0447
1.9,0.2425662,0.2074664,0.0388
2.0,0.2126415,0.1727546,0.0332
2.2,0.1592032,0.1172493,0.0241
2.4,0.1349498,0.07907011,0.0215
2.5,0.1305126,0.07030646,0.0202
2.6,0.1251598,0.0645971,0.019
2.8,0.1127044,0.05495071,0.0168
3.0,0.09947104,0.04719441,0.0148
3.2,0.08676302,0.04092934,0.013
3.4,0.07524993,0.03666155,0.0115
3.5,0.07000972,0.0348845,0.0109
3.6,0.06511945,0.0330844,0.0102
3.8,0.0563519,0.02958148,0.00909
4.0,0.05059138,0.02634381,0.00809
4.2,0.04669714,0.02494925,0.00722
4.4,0.04397051,0.02415534,0.00647
4.6,0.04017213,0.02181428,0.00581
4.8,0.03544185,0.02048028,0.00524
5.0,0.03085857,0.01920872,0.00474
5.5,0.0242631,0.01277623,0.00375
6.0,0.01937976,0.01066641,0.00302
6.5,0.01544587,0.00904515,0.00247
7.0,0.01285416,0.0077711,0.00206
7.5,0.01106468,0.00675088,0.00174
8.0,0.00974864,0.00592073,0.00149
8.5,0.00866069,0.00523587,0.00128
9.0,0.00774394,0.00466403,0.00112
9.5,0.00696432,0.00418149,0.000985
10.0,0.00629605,0.0037705,0.000873
11.0,0.00521754,0.00311202,0.0007
12.0,0.00439329,0.00261257,0.000573
13.0,0.00374952,0.00222464,0.000478
14.0,0.00323729,0.00191727,0.000406
15.0,0.00282313,0.00166956,0.000348
20.0,0.00159373,0.00093832,0.000187
